NORAD_CAT_ID,OBJECT_NAME,OBJECT_TYPE,EPOCH,MEAN_MOTION,ECCENTRICITY,INCLINATION,RA_OF_ASC_NODE,ARG_OF_PERICENTER,MEAN_ANOMALY,BSTAR,MEAN_MOTION_DOT,MEAN_MOTION_DDOT,TLE_LINE0,TLE_LINE1,TLE_LINE2,SEMIMAJOR_AXIS,PERIOD,APOGEE,PERIGEE,DECAYED
51726.0,STARLINK-3527,PAYLOAD,2022-06-23 06:00:00,15.08830258,0.0001491,53.216,283.9081,55.4895,156.8106,0.0024678,0.00039195,0.0,0 STARLINK-3527,1 51726U 22016N   22174.25001157  .00039195  00000-0  24678-2 0  9995,2 51726  53.2160 283.9081 0001491  55.4895 156.8106 15.08830258 20001,6917.91,95.438,540.807,538.744,0.0
51726.0,STARLINK-3527,PAYLOAD,2022-06-23 14:00:01,15.08862132,0.000162,53.216,282.4135,49.2031,174.6972,-0.0024084,-0.00038437,0.0,0 STARLINK-3527,1 51726U 22016N   22174.58334491 -.00038437  00000-0 -24084-2 0  9992,2 51726  53.2160 282.4135 0001620  49.2031 174.6972 15.08862132  1309,6917.813,95.436,540.798,538.557,0.0
51726.0,STARLINK-3527,PAYLOAD,2022-06-23 22:00:00,15.08849079,0.0001533,53.2156,280.9164,46.0977,189.4124,-0.0015299,-0.0002456,0.0,0 STARLINK-3527,1 51726U 22016N   22174.91667824 -.00024560  00000-0 -15299-2 0  9998,2 51726  53.2156 280.9164 0001533  46.0977 189.4124 15.08849079 20103,6917.853,95.437,540.778,538.6569999999998,0.0
51726.0,STARLINK-3527,PAYLOAD,2022-06-24 14:00:01,15.08830734,0.0001571,53.2157,277.9243,46.1741,212.4756,9.3852e-05,1.206e-05,0.0,0 STARLINK-3527,1 51726U 22016N   22175.58334491  .00001206  00000-0  93852-4 0  9996,2 51726  53.2157 277.9243 0001571  46.1741 212.4756 15.08830734  1307,6917.909000000002,95.438,540.861,538.687,0.0
51726.0,STARLINK-3527,PAYLOAD,2022-06-24 22:00:01,15.08856392,0.0001516,53.2155,276.4271,44.5908,225.7035,-0.0019572,-0.00031316,0.0,0 STARLINK-3527,1 51726U 22016N   22175.91668981 -.00031316  00000-0 -19572-2 0  9999,2 51726  53.2155 276.4271 0001516  44.5908 225.7035 15.08856392 20256,6917.83,95.437,540.744,538.6469999999998,0.0
51726.0,STARLINK-3527,PAYLOAD,2022-06-25 14:00:01,15.08828566,0.0001575999999999,53.2158,273.4351,42.6171,250.825,-0.00040872,-6.785e-05,0.0,0 STARLINK-3527,1 51726U 22016N   22176.58334491 -.00006785  00000-0 -40872-3 0  9999,2 51726  53.2158 273.4351 0001576  42.6171 250.8250 15.08828566  1307,6917.915,95.438,540.871,538.69,0.0
51726.0,STARLINK-3527,PAYLOAD,2022-06-25 16:00:00,15.08807073,0.0001569,53.216,273.0613,40.7979,345.5457,0.002482,0.00039399,0.0,0 STARLINK-3527,1 51726U 22016N   22176.66667824  .00039399  00000-0  24820-2 0  9996,2 51726  53.2160 273.0613 0001569  40.7979 345.5457 15.08807073 20373,6917.981,95.44,540.931,538.761,0.0
51726.0,STARLINK-3527,PAYLOAD,2022-06-25 22:00:00,15.08853184,0.0001501,53.2158,271.9379,39.9746,265.0486,-0.0017784,-0.0002849,0.0,0 STARLINK-3527,1 51726U 22016N   22176.91667824 -.00028490  00000-0 -17784-2 0  9997,2 51726  53.2158 271.9379 0001501  39.9746 265.0486 15.08853184  1308,6917.84,95.437,540.743,538.6669999999998,0.0
51726.0,STARLINK-3527,PAYLOAD,2022-06-26 14:00:01,15.08860942,0.0001686999999999,53.2161,268.946,41.8713,286.4226,-0.0016847,-0.00027016,0.0,0 STARLINK-3527,1 51726U 22016N   22177.58335648 -.00027016  00000-0 -16847-2 0  9999,2 51726  53.2161 268.9460 0001687  41.8713 286.4226 15.08860942 20502,6917.816,95.436,540.8480000000002,538.514,0.0
51726.0,STARLINK-3527,PAYLOAD,2022-06-26 22:00:00,15.08852593,0.0001654,53.2161,267.4487,43.1015,296.735,-0.0016436,-0.0002636,0.0,0 STARLINK-3527,1 51726U 22016N   22177.91667824 -.00026360  00000-0 -16436-2 0  9995,2 51726  53.2161 267.4487 0001654  43.1015 296.7350 15.08852593  1301,6917.842,95.437,540.851,538.563,0.0
51726.0,STARLINK-3527,PAYLOAD,2022-06-27 14:00:01,15.08813963,0.0001877,53.2165,264.4571,46.2794,316.7534,0.0010089,0.00015794,0.0,0 STARLINK-3527,1 51726U 22016N   22178.58334491  .00015794  00000-0  10089-2 0  9995,2 51726  53.2165 264.4571 0001877  46.2794 316.7534 15.08813963 20655,6917.96,95.439,541.123,538.526,0.0
51726.0,STARLINK-3527,PAYLOAD,2022-06-27 22:00:00,15.08845636,0.0001774,53.2164,262.9597,46.6707,327.9342,-0.0016937,-0.00027147,0.0,0 STARLINK-3527,1 51726U 22016N   22178.91667824 -.00027147  00000-0 -16937-2 0  9996,2 51726  53.2164 262.9597 0001774  46.6707 327.9342 15.08845636  1303,6917.863,95.437,540.955,538.501,0.0
51726.0,STARLINK-3527,PAYLOAD,2022-06-28 14:00:01,15.08827115,0.0001886,53.2166,259.9683,46.2904,351.4906,0.0010584,0.00016591,0.0,0 STARLINK-3527,1 51726U 22016N   22179.58334491  .00016591  00000-0  10584-2 0  9992,2 51726  53.2166 259.9683 0001886  46.2904 351.4906 15.08827115  1306,6917.92,95.438,541.089,538.48,0.0
51726.0,STARLINK-3527,PAYLOAD,2022-06-28 22:00:00,15.08853607,0.0001763,53.2163,258.4707,47.734,1.6339,-0.0016591999999999,-0.00026607,0.0,0 STARLINK-3527,1 51726U 22016N   22179.91667824 -.00026607  00000-0 -16592-2 0  9994,2 51726  53.2163 258.4707 0001763  47.7340   1.6339 15.08853607  1307,6917.839,95.437,540.923,538.484,0.0
51726.0,STARLINK-3527,PAYLOAD,2022-06-29 14:00:01,15.08845077,0.0001834,53.2162,255.4795,45.3317,27.2411,-0.00059637,-9.768e-05,0.0,0 STARLINK-3527,1 51726U 22016N   22180.58334491 -.00009768  00000-0 -59637-3 0  9997,2 51726  53.2162 255.4795 0001834  45.3317  27.2411 15.08845077 20967,6917.865,95.437,540.999,538.461,0.0
51726.0,STARLINK-3527,PAYLOAD,2022-06-29 22:00:00,15.08837931,0.0001636999999999,53.2159,253.9817,46.3094,37.8656,-0.0019634,-0.00031398,0.0,0 STARLINK-3527,1 51726U 22016N   22180.91667824 -.00031398  00000-0 -19634-2 0  9999,2 51726  53.2159 253.9817 0001637  46.3094  37.8656 15.08837931  1300,6917.887,95.438,540.884,538.619,0.0
51726.0,STARLINK-3527,PAYLOAD,2022-06-30 14:00:01,15.08813041,0.0001754999999999,53.2156,250.9907,43.9119,63.4302,0.0017459,0.00027587,0.0,0 STARLINK-3527,1 51726U 22016N   22181.58334491  .00027587  00000-0  17459-2 0  9990,2 51726  53.2156 250.9907 0001755  43.9119  63.4302 15.08813041  1305,6917.9630000000025,95.439,541.0419999999998,538.614,0.0
51726.0,STARLINK-3527,PAYLOAD,2022-06-30 22:00:00,15.08834918,0.0001615,53.2152,249.4928,47.1218,71.7958,-0.00096266,-0.00015574,0.0,0 STARLINK-3527,1 51726U 22016N   22181.91667824 -.00015574  00000-0 -96266-3 0  9995,2 51726  53.2152 249.4928 0001615  47.1218  71.7958 15.08834918  1303,6917.896,95.438,540.878,538.644,0.0
51726.0,STARLINK-3527,PAYLOAD,2022-07-01 06:00:00,15.088440300000002,0.0001607,53.2152,247.9964,50.9061,79.5906,-0.00068111,-0.00011113,0.0,0 STARLINK-3527,1 51726U 22016N   22182.25001157 -.00011113  00000-0 -68111-3 0  9997,2 51726  53.2152 247.9964 0001607  50.9061  79.5906 15.08844030 21212,6917.868,95.437,540.845,538.621,0.0
51726.0,STARLINK-3527,PAYLOAD,2022-07-01 14:00:01,15.08814416,0.0001769,53.2148,246.5017,44.1772,97.9185,0.0021838,0.00034614,0.0,0 STARLINK-3527,1 51726U 22016N   22182.58334491  .00034614  00000-0  21838-2 0  9996,2 51726  53.2148 246.5017 0001769  44.1772  97.9185 15.08814416  1300,6917.959,95.439,541.047,538.6,0.0
51726.0,STARLINK-3527,PAYLOAD,2022-07-01 22:00:00,15.0883772,0.0001631,53.2154,245.0037,47.6836,105.9957,-0.00048609,-8.015e-05,0.0,0 STARLINK-3527,1 51726U 22016N   22182.91667824 -.00008015  00000-0 -48609-3 0  9996,2 51726  53.2154 245.0037 0001631  47.6836 105.9957 15.08837720  1300,6917.887,95.438,540.881,538.624,0.0
51726.0,STARLINK-3527,PAYLOAD,2022-07-02 14:00:01,15.08818283,0.0001826,53.2163,242.0126,43.7794,133.0904,0.0027042,0.00042987,0.0,0 STARLINK-3527,1 51726U 22016N   22183.58334491  .00042987  00000-0  27042-2 0  9992,2 51726  53.2163 242.0126 0001826  43.7794 133.0904 15.08818283 21413,6917.946999999999,95.439,541.075,538.549,0.0
51726.0,STARLINK-3527,PAYLOAD,2022-07-02 22:00:00,15.08850803,0.0001679,53.216,240.5144,47.2211,141.2543,0.00043733,6.681e-05,0.0,0 STARLINK-3527,1 51726U 22016N   22183.91667824  .00006681  00000-0  43733-3 0  9995,2 51726  53.2160 240.5144 0001679  47.2211 141.2543 15.08850803  1302,6917.847,95.437,540.874,538.5509999999998,0.0
51726.0,STARLINK-3527,PAYLOAD,2022-07-03 14:00:01,15.08847542,0.0001879,53.2161,237.5232,43.0811,168.6183,-3.6217e-05,-8.65e-06,0.0,0 STARLINK-3527,1 51726U 22016N   22184.58334491 -.00000865  00000-0 -36217-4 0  9990,2 51726  53.2161 237.5232 0001879  43.0811 168.6183 15.08847542 21568,6917.857,95.437,541.0219999999998,538.422,0.0
51726.0,STARLINK-3527,PAYLOAD,2022-07-04 00:00:00,15.0879041,0.0001743,53.2162,235.6505,48.7128,267.4994,0.0012474,0.00019593,0.0,0 STARLINK-3527,1 51726U 22016N   22185.00001157  .00019593  00000-0  12474-2 0  9991,2 51726  53.2162 235.6505 0001743  48.7128 267.4994 15.08790410  1303,6918.031999999997,95.441,541.1030000000002,538.691,0.0
51726.0,STARLINK-3527,PAYLOAD,2022-07-04 06:00:00,15.08814651,0.0001855,53.2165,234.529,50.2223,184.6428,-0.0013001,-0.00020906,0.0,0 STARLINK-3527,1 51726U 22016N   22185.25001157 -.00020906  00000-0 -13001-2 0  9997,2 51726  53.2165 234.5290 0001855  50.2223 184.6428 15.08814651 21660,6917.958000000001,95.439,541.106,538.54,0.0
51726.0,STARLINK-3527,PAYLOAD,2022-07-04 14:00:01,15.08780578,0.0002012,53.2165,233.034,44.3591,202.0672,0.0029544,0.00046969,0.0,0 STARLINK-3527,1 51726U 22016N   22185.58334491  .00046969  00000-0  29544-2 0  9997,2 51726  53.2165 233.0340 0002012  44.3591 202.0672 15.08780578  1303,6918.062,95.441,541.319,538.535,0.0
51726.0,STARLINK-3527,PAYLOAD,2022-07-04 22:00:00,15.08788165,0.0001835,53.2168,231.5358,47.4316,210.5505,0.003076,0.00048937,0.0,0 STARLINK-3527,1 51726U 22016N   22185.91667824  .00048937  00000-0  30760-2 0  9992,2 51726  53.2168 231.5358 0001835  47.4316 210.5505 15.08788165 21760,6918.0390000000025,95.441,541.173,538.634,0.0
51726.0,STARLINK-3527,PAYLOAD,2022-07-05 14:00:01,15.08823189,0.0001987,53.217,228.5448,42.293,238.8388,0.0027521,0.00043764,0.0,0 STARLINK-3527,1 51726U 22016N   22186.58334491  .00043764  00000-0  27521-2 0  9991,2 51726  53.2170 228.5448 0001987  42.2930 238.8388 15.08823189  1308,6917.932,95.439,541.1709999999998,538.422,0.0
